KUIPER-00071            
1 64818U 25151C   25281.30874532  .00006754  00000+0  91517-3 0  9998
2 64818  51.8991 256.8989 0008176  87.0499 273.1399 14.79870177 12703
KUIPER-00072            
1 64819U 25151D   25281.90713472 -.00037461  00000+0 -15435-2 0  9995
2 64819  51.8831 239.9102 0006384 105.2494 254.9193 15.23453914 12999
KUIPER-00073            
1 64820U 25151E   25281.95027632  .00006084  00000+0  82562-3 0  9999
2 64820  51.8989 254.0625 0013844 109.8035 250.4421 14.79929423 13981
KUIPER-00074            
1 64821U 25151F   25282.00001157 -.00960842  00000+0 -81205-1 0  9995
2 64821  51.8914 242.5338 0013800 117.5829 233.1610 15.00246897  5938
KUIPER-00075            
1 64822U 25151G   25281.15103586  .00074046  00000+0  19035-2 0  9993
2 64822  51.8784 242.3598 0006788  74.7648 285.4089 15.38587049 12891
KUIPER-00076            
1 64823U 25151H   25280.47254614 -.00315056  00000+0 -29097-1 0  9996
2 64823  51.8911 251.2355 0005813 101.9934 258.1688 14.95912712 12717
KUIPER-00077            
1 64824U 25151J   25282.00001157 -.00015230  00000+0 -19732-2 0  9997
2 64824  51.9015 248.8484 0006100  67.5672 168.5951 14.79915493  5771
KUIPER-00078            
1 64825U 25151K   25282.00001157 -.00032977  00000+0 -37546-2 0  9998
2 64825  51.8979 246.4403 0008545 134.3530 212.0094 14.85680498  5141
